STARLINK-37184          
1 68393U 26063P   26113.25002315  .00009193  00000+0  62476-4 0  9997
2 68393  97.2849 255.2936 0001453  76.2329 162.5229 15.75174439  5620
STARLINK-37157          
1 68394U 26063Q   26112.54687398  .00085054  00000+0  56504-3 0  9993
2 68394  97.2857 254.4622 0001207  69.5888 290.5507 15.75206899  4542
STARLINK-37172          
1 68395U 26063R   26112.47522220  .00145842  00000+0  95879-3 0  9998
2 68395  97.2856 254.4059 0001440  88.8555 271.2875 15.75268484  4531
STARLINK-37190          
1 68396U 26063S   26112.56576291  .00243399  00000+0  12311-2 0  9991
2 68396  97.2851 254.5895 0001259  57.7760 302.3630 15.80908749  4555
STARLINK-37194          
1 68397U 26063T   26113.25002315  .00030878  00000+0  20736-3 0  9997
2 68397  97.2851 255.2771 0001313  74.7337 128.0276 15.75165023  5629
STARLINK-37220          
1 68398U 26063U   26112.58887222  .00135265  00000+0  89164-3 0  9997
2 68398  97.2860 254.5589 0001161   3.7602 356.3671 15.75237259  4554
STARLINK-37187          
1 68399U 26063V   26112.05709931  .00204159  00000+0  10382-2 0  9994
2 68399  97.2849 254.0576 0001287  67.7854 292.3550 15.80891691  4479
STARLINK-36235          
1 68400U 26063W   26113.25002315  .00050048  00000+0  33494-3 0  9998
2 68400  97.2851 255.2864 0001408  93.5074 133.2529 15.75155759  5623
STARLINK-37175          
1 68401U 26063X   26112.59840214  .00175732  00000+0  11523-2 0  9999
2 68401  97.2857 254.5451 0001600  25.6121 334.5224 15.75244062  4552
STARLINK-36360          
1 68402U 26063Y   26112.38629192  .00099385  00000+0  65849-3 0  9997
2 68402  97.2842 254.3725 0001833 100.6376 259.5096 15.75223222  4528
STARLINK-37218          
1 68403U 26063Z   26111.29296984  .00265189  00000+0  13375-2 0  9999
2 68403  97.2849 253.2602 0001466  60.6480 299.4934 15.80914660  4355
STARLINK-37188          
1 68404U 26063AA  26112.55974955  .00163036  00000+0  83324-3 0  9991
2 68404  97.2853 254.5980 0001151  54.2642 305.8733 15.80890905  4550
SHIYAN-33               
1 68405U 26064A   26113.28227411  .00004032  00000+0  17198-3 0  9998
2 68405  97.4633 189.0866 0015407 135.8572 224.3898 15.23393887  4136
LPNTSAT-001 (IOD-1)     
1 68408U 26065A   26112.91872181  .00002022  00000+0  10144-3 0  9992
2 68408  97.4090 354.5844 0016624 191.1811 168.9056 15.18354610  3878
LPNTSAT-002 (IOD-2)     
1 68409U 26065B   26112.91765991  .00004611  00000+0  22628-3 0  9999
2 68409  97.4072 354.5814 0013797 184.9152 175.1949 15.18505644  3856
XINZHENGCHENG-01        
1 68412U 26066A   26113.30180001  .00000400  00000+0  39674-4 0  9993
2 68412  84.9634 262.6601 0027634  85.2988 275.1391 14.88356426  3561
