[{"OBJECT_NAME":"STARLINK-37184","OBJECT_ID":"2026-063P","EPOCH":"2026-04-23T06:00:02.000160","MEAN_MOTION":15.75174439,"ECCENTRICITY":0.00014533,"INCLINATION":97.2849,"RA_OF_ASC_NODE":255.2936,"ARG_OF_PERICENTER":76.2329,"MEAN_ANOMALY":162.5229,"EPHEMERIS_TYPE":0,"CLASSIFICATION_TYPE":"U","NORAD_CAT_ID":68393,"ELEMENT_SET_NO":999,"REV_AT_EPOCH":562,"BSTAR":6.2475694e-5,"MEAN_MOTION_DOT":9.193e-5,"MEAN_MOTION_DDOT":0},{"OBJECT_NAME":"STARLINK-37157","OBJECT_ID":"2026-063Q","EPOCH":"2026-04-22T13:07:29.911872","MEAN_MOTION":15.75206899,"ECCENTRICITY":0.0001207,"INCLINATION":97.2857,"RA_OF_ASC_NODE":254.4622,"ARG_OF_PERICENTER":69.5888,"MEAN_ANOMALY":290.5507,"EPHEMERIS_TYPE":0,"CLASSIFICATION_TYPE":"U","NORAD_CAT_ID":68394,"ELEMENT_SET_NO":999,"REV_AT_EPOCH":454,"BSTAR":0.00056504,"MEAN_MOTION_DOT":0.00085054,"MEAN_MOTION_DDOT":0},{"OBJECT_NAME":"STARLINK-37172","OBJECT_ID":"2026-063R","EPOCH":"2026-04-22T11:24:19.198080","MEAN_MOTION":15.75268484,"ECCENTRICITY":0.000144,"INCLINATION":97.2856,"RA_OF_ASC_NODE":254.4059,"ARG_OF_PERICENTER":88.8555,"MEAN_ANOMALY":271.2875,"EPHEMERIS_TYPE":0,"CLASSIFICATION_TYPE":"U","NORAD_CAT_ID":68395,"ELEMENT_SET_NO":999,"REV_AT_EPOCH":453,"BSTAR":0.00095879,"MEAN_MOTION_DOT":0.00145842,"MEAN_MOTION_DDOT":0},{"OBJECT_NAME":"STARLINK-37190","OBJECT_ID":"2026-063S","EPOCH":"2026-04-22T13:34:41.915424","MEAN_MOTION":15.80908749,"ECCENTRICITY":0.0001259,"INCLINATION":97.2851,"RA_OF_ASC_NODE":254.5895,"ARG_OF_PERICENTER":57.776,"MEAN_ANOMALY":302.363,"EPHEMERIS_TYPE":0,"CLASSIFICATION_TYPE":"U","NORAD_CAT_ID":68396,"ELEMENT_SET_NO":999,"REV_AT_EPOCH":455,"BSTAR":0.0012311,"MEAN_MOTION_DOT":0.00243399,"MEAN_MOTION_DDOT":0},{"OBJECT_NAME":"STARLINK-37194","OBJECT_ID":"2026-063T","EPOCH":"2026-04-23T06:00:02.000160","MEAN_MOTION":15.75165023,"ECCENTRICITY":0.00013139,"INCLINATION":97.2851,"RA_OF_ASC_NODE":255.2771,"ARG_OF_PERICENTER":74.7337,"MEAN_ANOMALY":128.0276,"EPHEMERIS_TYPE":0,"CLASSIFICATION_TYPE":"U","NORAD_CAT_ID":68397,"ELEMENT_SET_NO":999,"REV_AT_EPOCH":562,"BSTAR":0.0002073641,"MEAN_MOTION_DOT":0.00030878,"MEAN_MOTION_DDOT":0},{"OBJECT_NAME":"STARLINK-37220","OBJECT_ID":"2026-063U","EPOCH":"2026-04-22T14:07:58.559808","MEAN_MOTION":15.75237259,"ECCENTRICITY":0.0001161,"INCLINATION":97.286,"RA_OF_ASC_NODE":254.5589,"ARG_OF_PERICENTER":3.7602,"MEAN_ANOMALY":356.3671,"EPHEMERIS_TYPE":0,"CLASSIFICATION_TYPE":"U","NORAD_CAT_ID":68398,"ELEMENT_SET_NO":999,"REV_AT_EPOCH":455,"BSTAR":0.00089164,"MEAN_MOTION_DOT":0.00135265,"MEAN_MOTION_DDOT":0},{"OBJECT_NAME":"STARLINK-37187","OBJECT_ID":"2026-063V","EPOCH":"2026-04-22T01:22:13.380384","MEAN_MOTION":15.80891691,"ECCENTRICITY":0.0001287,"INCLINATION":97.2849,"RA_OF_ASC_NODE":254.0576,"ARG_OF_PERICENTER":67.7854,"MEAN_ANOMALY":292.355,"EPHEMERIS_TYPE":0,"CLASSIFICATION_TYPE":"U","NORAD_CAT_ID":68399,"ELEMENT_SET_NO":999,"REV_AT_EPOCH":447,"BSTAR":0.0010382,"MEAN_MOTION_DOT":0.00204159,"MEAN_MOTION_DDOT":0},{"OBJECT_NAME":"STARLINK-36235","OBJECT_ID":"2026-063W","EPOCH":"2026-04-23T06:00:02.000160","MEAN_MOTION":15.75155759,"ECCENTRICITY":0.00014089,"INCLINATION":97.2851,"RA_OF_ASC_NODE":255.2864,"ARG_OF_PERICENTER":93.5074,"MEAN_ANOMALY":133.2529,"EPHEMERIS_TYPE":0,"CLASSIFICATION_TYPE":"U","NORAD_CAT_ID":68400,"ELEMENT_SET_NO":999,"REV_AT_EPOCH":562,"BSTAR":0.00033494429,"MEAN_MOTION_DOT":0.00050048,"MEAN_MOTION_DDOT":0},{"OBJECT_NAME":"STARLINK-37175","OBJECT_ID":"2026-063X","EPOCH":"2026-04-22T14:21:41.944896","MEAN_MOTION":15.75244062,"ECCENTRICITY":0.00016,"INCLINATION":97.2857,"RA_OF_ASC_NODE":254.5451,"ARG_OF_PERICENTER":25.6121,"MEAN_ANOMALY":334.5224,"EPHEMERIS_TYPE":0,"CLASSIFICATION_TYPE":"U","NORAD_CAT_ID":68401,"ELEMENT_SET_NO":999,"REV_AT_EPOCH":455,"BSTAR":0.0011523,"MEAN_MOTION_DOT":0.00175732,"MEAN_MOTION_DDOT":0},{"OBJECT_NAME":"STARLINK-36360","OBJECT_ID":"2026-063Y","EPOCH":"2026-04-22T09:16:15.621888","MEAN_MOTION":15.75223222,"ECCENTRICITY":0.0001833,"INCLINATION":97.2842,"RA_OF_ASC_NODE":254.3725,"ARG_OF_PERICENTER":100.6376,"MEAN_ANOMALY":259.5096,"EPHEMERIS_TYPE":0,"CLASSIFICATION_TYPE":"U","NORAD_CAT_ID":68402,"ELEMENT_SET_NO":999,"REV_AT_EPOCH":452,"BSTAR":0.00065849,"MEAN_MOTION_DOT":0.00099385,"MEAN_MOTION_DDOT":0},{"OBJECT_NAME":"STARLINK-37218","OBJECT_ID":"2026-063Z","EPOCH":"2026-04-21T07:01:52.594176","MEAN_MOTION":15.8091466,"ECCENTRICITY":0.0001466,"INCLINATION":97.2849,"RA_OF_ASC_NODE":253.2602,"ARG_OF_PERICENTER":60.648,"MEAN_ANOMALY":299.4934,"EPHEMERIS_TYPE":0,"CLASSIFICATION_TYPE":"U","NORAD_CAT_ID":68403,"ELEMENT_SET_NO":999,"REV_AT_EPOCH":435,"BSTAR":0.0013375,"MEAN_MOTION_DOT":0.00265189,"MEAN_MOTION_DDOT":0},{"OBJECT_NAME":"STARLINK-37188","OBJECT_ID":"2026-063AA","EPOCH":"2026-04-22T13:26:02.361120","MEAN_MOTION":15.80890905,"ECCENTRICITY":0.0001151,"INCLINATION":97.2853,"RA_OF_ASC_NODE":254.598,"ARG_OF_PERICENTER":54.2642,"MEAN_ANOMALY":305.8733,"EPHEMERIS_TYPE":0,"CLASSIFICATION_TYPE":"U","NORAD_CAT_ID":68404,"ELEMENT_SET_NO":999,"REV_AT_EPOCH":455,"BSTAR":0.00083324,"MEAN_MOTION_DOT":0.00163036,"MEAN_MOTION_DDOT":0},{"OBJECT_NAME":"SHIYAN-33","OBJECT_ID":"2026-064A","EPOCH":"2026-04-23T06:46:28.483104","MEAN_MOTION":15.23393887,"ECCENTRICITY":0.00154077,"INCLINATION":97.4633,"RA_OF_ASC_NODE":189.0866,"ARG_OF_PERICENTER":135.8572,"MEAN_ANOMALY":224.3898,"EPHEMERIS_TYPE":0,"CLASSIFICATION_TYPE":"U","NORAD_CAT_ID":68405,"ELEMENT_SET_NO":999,"REV_AT_EPOCH":413,"BSTAR":0.00017198361,"MEAN_MOTION_DOT":4.032e-5,"MEAN_MOTION_DDOT":0},{"OBJECT_NAME":"LPNTSAT-001 (IOD-1)","OBJECT_ID":"2026-065A","EPOCH":"2026-04-22T22:02:57.564384","MEAN_MOTION":15.1835461,"ECCENTRICITY":0.0016624,"INCLINATION":97.409,"RA_OF_ASC_NODE":354.5844,"ARG_OF_PERICENTER":191.1811,"MEAN_ANOMALY":168.9056,"EPHEMERIS_TYPE":0,"CLASSIFICATION_TYPE":"U","NORAD_CAT_ID":68408,"ELEMENT_SET_NO":999,"REV_AT_EPOCH":387,"BSTAR":0.00010144,"MEAN_MOTION_DOT":2.022e-5,"MEAN_MOTION_DDOT":0},{"OBJECT_NAME":"LPNTSAT-002 (IOD-2)","OBJECT_ID":"2026-065B","EPOCH":"2026-04-22T22:01:25.816224","MEAN_MOTION":15.18505644,"ECCENTRICITY":0.0013797,"INCLINATION":97.4072,"RA_OF_ASC_NODE":354.5814,"ARG_OF_PERICENTER":184.9152,"MEAN_ANOMALY":175.1949,"EPHEMERIS_TYPE":0,"CLASSIFICATION_TYPE":"U","NORAD_CAT_ID":68409,"ELEMENT_SET_NO":999,"REV_AT_EPOCH":385,"BSTAR":0.00022628,"MEAN_MOTION_DOT":4.611e-5,"MEAN_MOTION_DDOT":0},{"OBJECT_NAME":"XINZHENGCHENG-01","OBJECT_ID":"2026-066A","EPOCH":"2026-04-23T07:14:35.520864","MEAN_MOTION":14.88356426,"ECCENTRICITY":0.0027634,"INCLINATION":84.9634,"RA_OF_ASC_NODE":262.6601,"ARG_OF_PERICENTER":85.2988,"MEAN_ANOMALY":275.1391,"EPHEMERIS_TYPE":0,"CLASSIFICATION_TYPE":"U","NORAD_CAT_ID":68412,"ELEMENT_SET_NO":999,"REV_AT_EPOCH":356,"BSTAR":3.9674221e-5,"MEAN_MOTION_DOT":4.0e-6,"MEAN_MOTION_DDOT":0}]
